CCSDS_OMM_VERS = 2.0
CREATION_DATE  = 
ORIGINATOR     = 

OBJECT_NAME    = STARLINK-36993
OBJECT_ID      = 2026-039J
CENTER_NAME    = EARTH
REF_FRAME      = TEME
TIME_SYSTEM    = UTC
MEAN_ELEMENT_THEORY = SGP/SGP4

EPOCH          = 2026-03-07T14:00:01.000224
MEAN_MOTION    = 15.91518963
ECCENTRICITY   = .00017728
INCLINATION    = 42.9974
RA_OF_ASC_NODE = 67.8869
ARG_OF_PERICENTER = 267.5945
MEAN_ANOMALY   = 350.3643

EPHEMERIS_TYPE = 0
CLASSIFICATION_TYPE = U
NORAD_CAT_ID   = 67994
ELEMENT_SET_NO = 999
REV_AT_EPOCH   = 253
BSTAR          = -.48425836E-2
MEAN_MOTION_DOT = -.1618056E-1
MEAN_MOTION_DDOT = .72599228E-3

CCSDS_OMM_VERS = 2.0
CREATION_DATE  = 
ORIGINATOR     = 

OBJECT_NAME    = STARLINK-36968
OBJECT_ID      = 2026-039K
CENTER_NAME    = EARTH
REF_FRAME      = TEME
TIME_SYSTEM    = UTC
MEAN_ELEMENT_THEORY = SGP/SGP4

EPOCH          = 2026-03-07T14:00:01.000224
MEAN_MOTION    = 15.91747966
ECCENTRICITY   = .00017705
INCLINATION    = 42.9975
RA_OF_ASC_NODE = 67.8697
ARG_OF_PERICENTER = 265.6254
MEAN_ANOMALY   = 359.0079

EPHEMERIS_TYPE = 0
CLASSIFICATION_TYPE = U
NORAD_CAT_ID   = 67995
ELEMENT_SET_NO = 999
REV_AT_EPOCH   = 253
BSTAR          = -.48273581E-2
MEAN_MOTION_DOT = -.1632045E-1
MEAN_MOTION_DDOT = .73922288E-3

CCSDS_OMM_VERS = 2.0
CREATION_DATE  = 
ORIGINATOR     = 

OBJECT_NAME    = STARLINK-36979
OBJECT_ID      = 2026-039L
CENTER_NAME    = EARTH
REF_FRAME      = TEME
TIME_SYSTEM    = UTC
MEAN_ELEMENT_THEORY = SGP/SGP4

EPOCH          = 2026-03-07T14:00:01.000224
MEAN_MOTION    = 15.91596115
ECCENTRICITY   = .00017736
INCLINATION    = 42.9972
RA_OF_ASC_NODE = 67.8763
ARG_OF_PERICENTER = 266.9250
MEAN_ANOMALY   = 355.0436

EPHEMERIS_TYPE = 0
CLASSIFICATION_TYPE = U
NORAD_CAT_ID   = 67996
ELEMENT_SET_NO = 999
REV_AT_EPOCH   = 253
BSTAR          = -.48497471E-2
MEAN_MOTION_DOT = -.1626825E-1
MEAN_MOTION_DDOT = .7337974E-3

CCSDS_OMM_VERS = 2.0
CREATION_DATE  = 
ORIGINATOR     = 

OBJECT_NAME    = STARLINK-36994
OBJECT_ID      = 2026-039M
CENTER_NAME    = EARTH
REF_FRAME      = TEME
TIME_SYSTEM    = UTC
MEAN_ELEMENT_THEORY = SGP/SGP4

EPOCH          = 2026-03-07T14:00:01.000224
MEAN_MOTION    = 15.92025742
ECCENTRICITY   = .00014794
INCLINATION    = 42.9974
RA_OF_ASC_NODE = 67.8548
ARG_OF_PERICENTER = 266.6690
MEAN_ANOMALY   = 3.6800

EPHEMERIS_TYPE = 0
CLASSIFICATION_TYPE = U
NORAD_CAT_ID   = 67997
ELEMENT_SET_NO = 999
REV_AT_EPOCH   = 253
BSTAR          = -.47742279E-2
MEAN_MOTION_DOT = -.1637409E-1
MEAN_MOTION_DDOT = .74570913E-3

CCSDS_OMM_VERS = 2.0
CREATION_DATE  = 
ORIGINATOR     = 

OBJECT_NAME    = STARLINK-36988
OBJECT_ID      = 2026-039N
CENTER_NAME    = EARTH
REF_FRAME      = TEME
TIME_SYSTEM    = UTC
MEAN_ELEMENT_THEORY = SGP/SGP4

EPOCH          = 2026-03-07T14:00:01.000224
MEAN_MOTION    = 15.91875702
ECCENTRICITY   = .00017951
INCLINATION    = 42.9974
RA_OF_ASC_NODE = 67.8620
ARG_OF_PERICENTER = 267.1403
MEAN_ANOMALY   = 0.5181

EPHEMERIS_TYPE = 0
CLASSIFICATION_TYPE = U
NORAD_CAT_ID   = 67998
ELEMENT_SET_NO = 999
REV_AT_EPOCH   = 253
BSTAR          = -.47777947E-2
MEAN_MOTION_DOT = -.1626119E-1
MEAN_MOTION_DDOT = .73519631E-3

CCSDS_OMM_VERS = 2.0
CREATION_DATE  = 
ORIGINATOR     = 

OBJECT_NAME    = STARLINK-36926
OBJECT_ID      = 2026-039P
CENTER_NAME    = EARTH
REF_FRAME      = TEME
TIME_SYSTEM    = UTC
MEAN_ELEMENT_THEORY = SGP/SGP4

EPOCH          = 2026-03-07T14:00:01.000224
MEAN_MOTION    = 15.92165746
ECCENTRICITY   = .00017535
INCLINATION    = 42.9974
RA_OF_ASC_NODE = 67.8482
ARG_OF_PERICENTER = 268.5524
MEAN_ANOMALY   = 4.5769

EPHEMERIS_TYPE = 0
CLASSIFICATION_TYPE = U
NORAD_CAT_ID   = 67999
ELEMENT_SET_NO = 999
REV_AT_EPOCH   = 253
BSTAR          = -.4724103E-2
MEAN_MOTION_DOT = -.1632213E-1
MEAN_MOTION_DDOT = .74236547E-3

CCSDS_OMM_VERS = 2.0
CREATION_DATE  = 
ORIGINATOR     = 

OBJECT_NAME    = STARLINK-36931
OBJECT_ID      = 2026-039Q
CENTER_NAME    = EARTH
REF_FRAME      = TEME
TIME_SYSTEM    = UTC
MEAN_ELEMENT_THEORY = SGP/SGP4

EPOCH          = 2026-03-07T14:00:01.000224
MEAN_MOTION    = 15.92320227
ECCENTRICITY   = .0001755
INCLINATION    = 42.9976
RA_OF_ASC_NODE = 67.8424
ARG_OF_PERICENTER = 266.6691
MEAN_ANOMALY   = 8.7802

EPHEMERIS_TYPE = 0
CLASSIFICATION_TYPE = U
NORAD_CAT_ID   = 68000
ELEMENT_SET_NO = 999
REV_AT_EPOCH   = 253
BSTAR          = -.46822897E-2
MEAN_MOTION_DOT = -.1630878E-1
MEAN_MOTION_DDOT = .74236358E-3

CCSDS_OMM_VERS = 2.0
CREATION_DATE  = 
ORIGINATOR     = 

OBJECT_NAME    = STARLINK-36903
OBJECT_ID      = 2026-039R
CENTER_NAME    = EARTH
REF_FRAME      = TEME
TIME_SYSTEM    = UTC
MEAN_ELEMENT_THEORY = SGP/SGP4

EPOCH          = 2026-03-07T14:00:01.000224
MEAN_MOTION    = 15.92452794
ECCENTRICITY   = .0001798
INCLINATION    = 42.9976
RA_OF_ASC_NODE = 67.8353
ARG_OF_PERICENTER = 267.7725
MEAN_ANOMALY   = 10.5055

EPHEMERIS_TYPE = 0
CLASSIFICATION_TYPE = U
NORAD_CAT_ID   = 68001
ELEMENT_SET_NO = 999
REV_AT_EPOCH   = 253
BSTAR          = -.46156587E-2
MEAN_MOTION_DOT = -.161901E-1
MEAN_MOTION_DDOT = .73339353E-3

CCSDS_OMM_VERS = 2.0
CREATION_DATE  = 
ORIGINATOR     = 

OBJECT_NAME    = STARLINK-36898
OBJECT_ID      = 2026-039S
CENTER_NAME    = EARTH
REF_FRAME      = TEME
TIME_SYSTEM    = UTC
MEAN_ELEMENT_THEORY = SGP/SGP4

EPOCH          = 2026-03-07T14:00:01.000224
MEAN_MOTION    = 15.92726809
ECCENTRICITY   = .00018175
INCLINATION    = 42.9975
RA_OF_ASC_NODE = 67.8213
ARG_OF_PERICENTER = 269.3200
MEAN_ANOMALY   = 14.3367

EPHEMERIS_TYPE = 0
CLASSIFICATION_TYPE = U
NORAD_CAT_ID   = 68002
ELEMENT_SET_NO = 999
REV_AT_EPOCH   = 253
BSTAR          = -.45294205E-2
MEAN_MOTION_DOT = -.1611832E-1
MEAN_MOTION_DDOT = .72936859E-3

CCSDS_OMM_VERS = 2.0
CREATION_DATE  = 
ORIGINATOR     = 

OBJECT_NAME    = STARLINK-36862
OBJECT_ID      = 2026-039T
CENTER_NAME    = EARTH
REF_FRAME      = TEME
TIME_SYSTEM    = UTC
MEAN_ELEMENT_THEORY = SGP/SGP4

EPOCH          = 2026-03-07T14:00:01.000224
MEAN_MOTION    = 15.92984240
ECCENTRICITY   = .00016387
INCLINATION    = 42.9975
RA_OF_ASC_NODE = 67.8085
ARG_OF_PERICENTER = 278.7007
MEAN_ANOMALY   = 10.0427

EPHEMERIS_TYPE = 0
CLASSIFICATION_TYPE = U
NORAD_CAT_ID   = 68003
ELEMENT_SET_NO = 999
REV_AT_EPOCH   = 253
BSTAR          = -.44048394E-2
MEAN_MOTION_DOT = -.1589087E-1
MEAN_MOTION_DDOT = .71233182E-3

CCSDS_OMM_VERS = 2.0
CREATION_DATE  = 
ORIGINATOR     = 

OBJECT_NAME    = STARLINK-36888
OBJECT_ID      = 2026-039U
CENTER_NAME    = EARTH
REF_FRAME      = TEME
TIME_SYSTEM    = UTC
MEAN_ELEMENT_THEORY = SGP/SGP4

EPOCH          = 2026-03-07T14:00:01.000224
MEAN_MOTION    = 15.92592897
ECCENTRICITY   = .00017963
INCLINATION    = 42.9977
RA_OF_ASC_NODE = 67.8289
ARG_OF_PERICENTER = 269.1939
MEAN_ANOMALY   = 11.6987

EPHEMERIS_TYPE = 0
CLASSIFICATION_TYPE = U
NORAD_CAT_ID   = 68004
ELEMENT_SET_NO = 999
REV_AT_EPOCH   = 253
BSTAR          = -.45740492E-2
MEAN_MOTION_DOT = -.1616261E-1
MEAN_MOTION_DDOT = .73210315E-3

CCSDS_OMM_VERS = 2.0
CREATION_DATE  = 
ORIGINATOR     = 

OBJECT_NAME    = STARLINK-36910
OBJECT_ID      = 2026-039V
CENTER_NAME    = EARTH
REF_FRAME      = TEME
TIME_SYSTEM    = UTC
MEAN_ELEMENT_THEORY = SGP/SGP4

EPOCH          = 2026-03-07T14:00:01.000224
MEAN_MOTION    = 15.92864430
ECCENTRICITY   = .00018011
INCLINATION    = 42.9975
RA_OF_ASC_NODE = 67.8147
ARG_OF_PERICENTER = 270.2537
MEAN_ANOMALY   = 16.0594

EPHEMERIS_TYPE = 0
CLASSIFICATION_TYPE = U
NORAD_CAT_ID   = 68005
ELEMENT_SET_NO = 999
REV_AT_EPOCH   = 253
BSTAR          = -.44847445E-2
MEAN_MOTION_DOT = -.160756E-1
MEAN_MOTION_DDOT = .72679348E-3

