STARLINK-36993          
1 67994U 26039J   26066.58334491 -.01618056  72599-3 -48426-2 0  9992
2 67994  42.9974  67.8869 0001772 267.5945 350.3643 15.91518963  2533
STARLINK-36968          
1 67995U 26039K   26066.58334491 -.01632045  73922-3 -48274-2 0  9999
2 67995  42.9975  67.8697 0001770 265.6254 359.0079 15.91747966  2530
STARLINK-36979          
1 67996U 26039L   26066.58334491 -.01626825  73380-3 -48497-2 0  9994
2 67996  42.9972  67.8763 0001773 266.9250 355.0436 15.91596115  2536
STARLINK-36994          
1 67997U 26039M   26066.58334491 -.01637409  74571-3 -47742-2 0  9990
2 67997  42.9974  67.8548 0001479 266.6690   3.6800 15.92025742  2533
STARLINK-36988          
1 67998U 26039N   26066.58334491 -.01626119  73520-3 -47778-2 0  9999
2 67998  42.9974  67.8620 0001795 267.1403   0.5181 15.91875702  2530
STARLINK-36926          
1 67999U 26039P   26066.58334491 -.01632213  74237-3 -47241-2 0  9993
2 67999  42.9974  67.8482 0001753 268.5524   4.5769 15.92165746  2537
STARLINK-36931          
1 68000U 26039Q   26066.58334491 -.01630878  74236-3 -46823-2 0  9996
2 68000  42.9976  67.8424 0001755 266.6691   8.7802 15.92320227  2536
STARLINK-36903          
1 68001U 26039R   26066.58334491 -.01619010  73339-3 -46157-2 0  9995
2 68001  42.9976  67.8353 0001798 267.7725  10.5055 15.92452794  2531
STARLINK-36898          
1 68002U 26039S   26066.58334491 -.01611832  72937-3 -45294-2 0  9994
2 68002  42.9975  67.8213 0001817 269.3200  14.3367 15.92726809  2533
STARLINK-36862          
1 68003U 26039T   26066.58334491 -.01589087  71233-3 -44048-2 0  9995
2 68003  42.9975  67.8085 0001638 278.7007  10.0427 15.92984240  2536
STARLINK-36888          
1 68004U 26039U   26066.58334491 -.01616261  73210-3 -45740-2 0  9998
2 68004  42.9977  67.8289 0001796 269.1939  11.6987 15.92592897  2539
STARLINK-36910          
1 68005U 26039V   26066.58334491 -.01607560  72679-3 -44847-2 0  9996
2 68005  42.9975  67.8147 0001801 270.2537  16.0594 15.92864430  2533
